satname,norad_id,inclination_deg,eccentricity,mean_motion_rev_per_day,perigee_km,apogee_km,l1,l2
STARLINK-1008,44714,53.0548,0.000131,15.06392785,546.3264474044909,548.1408945202838,1 44714U 19074B   25355.81368015  .00000635  00000+0  61528-4 0  9992,2 44714  53.0548 176.2165 0001310  92.9708 267.1431 15.06392785337019
STARLINK-1012,44718,53.0528,0.0001553,15.06407173,546.1140705967009,548.2650770305272,1 44718U 19074F   25355.79154412  .00000970  00000+0  83997-4 0  9993,2 44718  53.0528 176.3133 0001553  91.4789 268.6378 15.06407173337002
STARLINK-1017,44723,53.0472,0.0006776,15.18058334,507.04075129457124,516.3778710154475,1 44723U 19074L   25355.81091838  .00009166  00000+0  45919-3 0  9991,2 44723  53.0472 169.0956 0006776 114.7300 245.4400 15.18058334337113
STARLINK-1019,44724,53.0509,0.0002648,15.57988578,391.6859680451844,395.27221592749993,1 44724U 19074M   25355.91670139  .00196788  00000+0  25235-2 0  9995,2 44724  53.0509 160.9312 0002648 219.2689 105.3008 15.57988578  5919
STARLINK-1020,44725,53.0542,0.0001318,15.06394339,546.316144915585,548.1416713689714,1 44725U 19074N   25355.85975123 -.00001263  00000+0 -65936-4 0  9999,2 44725  53.0542 196.0111 0001318  90.9029 269.2111 15.06394339336731
STARLINK-1031,44736,53.0464,0.0003229,15.61809428,380.2474284075561,384.61340284456674,1 44736U 19074Z   25355.91670139  .00177746  00000+0  19758-2 0  9994,2 44736  53.0464 147.5491 0003229 114.8840 279.1698 15.61809428  5989
STARLINK-1036,44741,53.0525,0.0001411,15.06394239,546.2520454569276,548.206383802697,1 44741U 19074AE  25355.82289833 -.00000762  00000+0 -32241-4 0  9996,2 44741  53.0525 196.1716 0001411  96.5135 263.6015 15.06394239336736
STARLINK-1039,44744,53.0481,0.0003637,15.15539218,516.833412589408,521.8506388327105,1 44744U 19074AH  25355.81314056  .00005919  00000+0  32436-3 0  9996,2 44744  53.0481 211.2714 0003637  72.7595 287.3796 15.15539218336529
STARLINK-1042,44747,53.0457,0.0001391,15.45695215,428.38916664235694,430.2830056549228,1 44747U 19074AL  25355.58316395  .00017984  00000+0  37447-3 0  9993,2 44747  53.0457 108.3481 0001391 266.2404  93.8443 15.45695215337978
STARLINK-1043,44748,53.053,0.0003202,15.45249064,428.4661727444727,432.8265175987199,1 44748U 19074AM  25355.83376241  .00083683  00000+0  17220-2 0  9993,2 44748  53.0530 208.0866 0003202 126.3392 233.7910 15.45249064336577
STARLINK-1046,44751,53.0529,0.0001453,15.06397659,546.2124785874312,548.2249869633761,1 44751U 19074AQ  25355.01383037  .00000261  00000+0  36431-4 0  9996,2 44751  53.0529 219.8056 0001453  94.9149 265.2006 15.06397659336337
STARLINK-1047,44752,53.0693,0.0001915,15.30563982,472.8162913106353,475.4407089971937,1 44752U 19074AR  25355.84332986  .00009613  00000+0  33255-3 0  9995,2 44752  53.0693 149.1221 0001915  11.3240 348.7802 15.30563982337419
STARLINK-1048,44753,53.0532,0.0001098,15.06398976,546.4542927363127,547.9750999688322,1 44753U 19074AS  25355.76944647  .00001156  00000+0  96469-4 0  9991,2 44753  53.0532 176.4124 0001098  89.6193 270.4922 15.06398976337005
STARLINK-1053,44758,53.039,0.0001304,15.68467893,362.4044494580876,364.16261193249284,1 44758U 19074AX  25355.71189250  .00070323  00000+0  61074-3 0  9997,2 44758  53.0390 113.7063 0001304 232.6566 127.4332 15.68467893337898
STARLINK-1060,44765,53.0464,0.0004919,15.79120171,329.6310810331188,336.23343096717235,1 44765U 19074BE  25355.91670139  .00171192  00000+0  92418-3 0  9990,2 44765  53.0464 156.6714 0004919 184.0553 138.0179 15.79120171  5973
STARLINK-1063,44768,53.0527,0.0001595,15.06392746,546.1291938516424,548.3383871338101,1 44768U 19074BH  25355.79894895  .00002470  00000+0  18469-3 0  9992,2 44768  53.0527 216.2851 0001595  85.2418 274.8753 15.06392746336467
STARLINK-1067,44771,53.0546,0.0002318,15.18257793,509.5089421450575,512.7027951389591,1 44771U 19074BL  25355.91670139  .01646518  00000+0  72862-1 0  9996,2 44771  53.0546 215.4310 0002318  79.6797  68.2608 15.18257793  5848
STARLINK-1068,44772,53.0557,0.0001523,15.33863299,463.2567908113124,465.3409967845646,1 44772U 19074BM  25355.91670139  .02036038  00000+0  55292-1 0  9996,2 44772  53.0557 194.1871 0001523 103.0698  14.7710 15.33863299  5857
STARLINK-1112,44925,53.0483,0.000971,15.67609796,359.19513133578494,372.29174714879355,1 44925U 20001M   25355.91670139  .00102684  00000+0  91553-3 0  9999,2 44925  53.0483 273.9072 0009710  76.4227 333.5504 15.67609796  5772
STARLINK-1114,44927,53.0564,0.000149,15.06398685,546.1837106911698,548.2474657624607,1 44927U 20001P   25355.68467140  .00001682  00000+0  13181-3 0  9998,2 44927  53.0564 336.7974 0001490  85.2803 274.8356 15.06398685328098
STARLINK-1123,44930,53.0565,0.0001529,15.06401088,546.1493380923312,548.2671086616392,1 44930U 20001S   25355.36767683  .00000798  00000+0  72448-4 0  9991,2 44930  53.0565 338.2193 0001529  90.1404 269.9760 15.06401088328049
STARLINK-1144,44933,53.0384,0.0002898,15.7745374,335.7115944106645,339.6040690951486,1 44933U 20001V   25355.91670139  .00082114  00000+0  48491-3 0  9996,2 44933  53.0384 247.7374 0002898 129.7694  41.1577 15.77453740  6023
STARLINK-1094,44941,53.0572,0.0001506,15.06395852,546.1813115826171,548.2672303974396,1 44941U 20001AD  25355.31423290  .00000681  00000+0  64612-4 0  9996,2 44941  53.0572 318.4615 0001506  93.6631 266.4530 15.06395852328311
STARLINK-1122,44949,53.0561,0.0001574,15.06383927,546.1707621895157,548.3508774231896,1 44949U 20001AM  25355.33635852 -.00001749  00000+0 -98557-4 0  9998,2 44949  53.0561 318.3584 0001574  95.6984 264.4184 15.06383927328312
STARLINK-1080,44961,53.0557,4.26e-05,15.15118128,520.3260697903943,520.9138438831169,1 44961U 20001AZ  25355.91670139  .00067314  00000+0  35339-2 0  9998,2 44961  53.0557 295.6013 0000426  85.8946 272.4279 15.15118128  5842
STARLINK-1090,44968,53.0556,0.0001371,15.0639767,546.2692327955601,548.1681653282421,1 44968U 20001BG  25355.13915304 -.00000809  00000+0 -35456-4 0  9995,2 44968  53.0556 299.2457 0001371  89.4276 270.6870 15.06397670328572
STARLINK-1132,45044,53.055,0.0001311,15.06398391,546.3085754534814,548.124403138374,1 45044U 20006A   25355.76209089  .00003416  00000+0  24814-3 0  9991,2 45044  53.0550 256.4523 0001311  81.3645 278.7492 15.06398391324998
STARLINK-1131,45047,53.0556,0.0001614,15.06392224,546.1176352570428,548.3531454646518,1 45047U 20006D   25355.20741890 -.00000088  00000+0  12991-4 0  9991,2 45047  53.0556 279.4798 0001614  96.6476 263.4696 15.06392224324629
STARLINK-1134,45048,53.0371,0.000529,15.33103203,462.9394659291165,470.18115568395024,1 45048U 20006E   25355.74173443  .00024193  00000+0  75478-3 0  9994,2 45048  53.0371 246.0823 0005290  27.2705 332.8572 15.33103203325142
STARLINK-1156,45054,53.0554,0.0001583,15.06395761,546.1282651598685,548.3208346265646,1 45054U 20006L   25355.50959197  .00002006  00000+0  15357-3 0  9992,2 45054  53.0554 277.5853 0001583  93.8461 266.2710 15.06395761324676
STARLINK-1159,45057,53.0528,0.0007242,15.57609587,389.672675016237,399.4822746615937,1 45057U 20006P   25355.80610958  .00068065  00000+0  90321-3 0  9998,2 45057  53.0528 259.4472 0007242  95.4636 264.7201 15.57609587324966
STARLINK-1166,45060,53.0543,0.0001379,15.06395853,546.2692606063101,548.1792752440042,1 45060U 20006S   25354.80557511  .00000976  00000+0  84439-4 0  9997,2 45060  53.0543 280.7447 0001379  89.7695 270.3452 15.06395853324572
STARLINK-1169,45061,53.0551,0.000157,15.06411494,546.0890565147856,548.2636049006269,1 45061U 20006T   25355.80814625  .00000792  00000+0  72023-4 0  9993,2 45061  53.0551 276.2456 0001570  91.5162 268.6007 15.06411494324728
STARLINK-1171,45062,53.0543,0.0013612,15.410181,433.8182111768674,452.38835572453354,1 45062U 20006U   25355.46853703  .00056852  00000+0  13526-2 0  9995,2 45062  53.0543 264.4849 0013612  86.8590 273.3971 15.41018100324861
STARLINK-1133,45064,53.0548,0.0001497,15.06400118,546.1744716603125,548.2479209102803,1 45064U 20006W   25355.47457253  .00003225  00000+0  23527-3 0  9997,2 45064  53.0548 257.7405 0001497 101.2046 258.9111 15.06400118324957
STARLINK-1167,45071,53.0557,0.0001535,15.06393446,546.1686009901368,548.2946891641759,1 45071U 20006AD  25355.43403836 -.00000199  00000+0  55524-5 0  9991,2 45071  53.0557 257.9213 0001535  85.6748 274.4416 15.06393446324946
STARLINK-1168,45072,53.0549,0.0001552,15.06395434,546.1507358379131,548.3003683740862,1 45072U 20006AE  25355.43771710  .00001216  00000+0  10056-3 0  9990,2 45072  53.0549 257.9062 0001552  97.4728 262.6437 15.06395434324949
STARLINK-1172,45074,53.0536,0.0001534,15.06390613,546.1779750086016,548.3026807727983,1 45074U 20006AG  25355.71416503 -.00000039  00000+0  16306-4 0  9997,2 45074  53.0536 256.6649 0001534  88.3166 271.7999 15.06390613324981
STARLINK-1153,45080,53.0545,0.0001279,15.06406048,546.3072720415848,548.0787714611488,1 45080U 20006AN  25355.75838734  .00001843  00000+0  14253-3 0  9993,2 45080  53.0545 256.4657 0001279  92.1645 267.9490 15.06406048324990
STARLINK-1151,45081,53.0643,0.0001411,15.36656091,455.0415702605087,456.97016537780746,1 45081U 20006AP  25355.91670139  .01044526  00000+0  26410-1 0  9997,2 45081  53.0643 253.9163 0001411  94.5783  31.5277 15.36656091  5689
STARLINK-1185,45087,53.0547,0.0001948,15.06399069,545.8653528657333,548.563469775584,1 45087U 20006AV  25355.65334244  .00001888  00000+0  14565-3 0  9991,2 45087  53.0547 236.9384 0001948  94.0015 266.1197 15.06399069325264
STARLINK-1183,45088,53.0548,0.0001555,15.06397306,546.1429216878942,548.2967076572577,1 45088U 20006AW  25355.41006982  .00001502  00000+0  11972-3 0  9993,2 45088  53.0548 238.0311 0001555 104.0739 256.0423 15.06397306325226
STARLINK-1142,45093,53.0178,0.00087,16.04029099,257.49580571739534,269.05186056706316,1 45093U 20006BB  25355.61582913  .01274954  93209-3  19352-2 0  9994,2 45093  53.0178 144.4895 0008700 280.2588  79.7461 16.04029099326555
